[{"OBJECT_NAME":"STARLINK-5986","OBJECT_ID":"2023-064E","EPOCH":"2026-03-12T07:13:49.310688","MEAN_MOTION":14.98329884,"ECCENTRICITY":0.00031019,"INCLINATION":69.9999,"RA_OF_ASC_NODE":138.0198,"ARG_OF_PERICENTER":267.8582,"MEAN_ANOMALY":92.2221,"EPHEMERIS_TYPE":0,"CLASSIFICATION_TYPE":"U","NORAD_CAT_ID":56452,"ELEMENT_SET_NO":999,"REV_AT_EPOCH":15563,"BSTAR":4.032645e-6,"MEAN_MOTION_DOT":-4.5e-7,"MEAN_MOTION_DDOT":0},{"OBJECT_NAME":"STARLINK-5935","OBJECT_ID":"2023-064F","EPOCH":"2026-03-12T07:07:48.608832","MEAN_MOTION":14.9833631,"ECCENTRICITY":0.00030445,"INCLINATION":70.0001,"RA_OF_ASC_NODE":138.0068,"ARG_OF_PERICENTER":268.2259,"MEAN_ANOMALY":91.8551,"EPHEMERIS_TYPE":0,"CLASSIFICATION_TYPE":"U","NORAD_CAT_ID":56453,"ELEMENT_SET_NO":999,"REV_AT_EPOCH":15563,"BSTAR":-3.3415819e-5,"MEAN_MOTION_DOT":-4.92e-6,"MEAN_MOTION_DDOT":0},{"OBJECT_NAME":"STARLINK-5959","OBJECT_ID":"2023-064G","EPOCH":"2026-03-12T06:37:45.442560","MEAN_MOTION":14.98331192,"ECCENTRICITY":0.00032735,"INCLINATION":70,"RA_OF_ASC_NODE":137.9318,"ARG_OF_PERICENTER":270.75,"MEAN_ANOMALY":89.3284,"EPHEMERIS_TYPE":0,"CLASSIFICATION_TYPE":"U","NORAD_CAT_ID":56454,"ELEMENT_SET_NO":999,"REV_AT_EPOCH":15563,"BSTAR":3.036394e-6,"MEAN_MOTION_DOT":-5.7e-7,"MEAN_MOTION_DDOT":0},{"OBJECT_NAME":"STARLINK-5987","OBJECT_ID":"2023-064H","EPOCH":"2026-03-12T06:31:45.819840","MEAN_MOTION":14.98320191,"ECCENTRICITY":0.0003055,"INCLINATION":69.9999,"RA_OF_ASC_NODE":137.9161,"ARG_OF_PERICENTER":269.1854,"MEAN_ANOMALY":90.8955,"EPHEMERIS_TYPE":0,"CLASSIFICATION_TYPE":"U","NORAD_CAT_ID":56455,"ELEMENT_SET_NO":999,"REV_AT_EPOCH":15563,"BSTAR":-6.1883287e-5,"MEAN_MOTION_DOT":-8.31e-6,"MEAN_MOTION_DDOT":0},{"OBJECT_NAME":"STARLINK-5995","OBJECT_ID":"2023-064J","EPOCH":"2026-03-12T06:49:46.875648","MEAN_MOTION":14.98325106,"ECCENTRICITY":0.00030351,"INCLINATION":70.0001,"RA_OF_ASC_NODE":137.9618,"ARG_OF_PERICENTER":271.5604,"MEAN_ANOMALY":88.5208,"EPHEMERIS_TYPE":0,"CLASSIFICATION_TYPE":"U","NORAD_CAT_ID":56456,"ELEMENT_SET_NO":999,"REV_AT_EPOCH":15563,"BSTAR":0.00016321603,"MEAN_MOTION_DOT":1.855e-5,"MEAN_MOTION_DDOT":0},{"OBJECT_NAME":"STARLINK-5994","OBJECT_ID":"2023-064K","EPOCH":"2026-03-12T06:43:46.118496","MEAN_MOTION":14.98331455,"ECCENTRICITY":0.00030081,"INCLINATION":70.0002,"RA_OF_ASC_NODE":137.9469,"ARG_OF_PERICENTER":267.4953,"MEAN_ANOMALY":92.5861,"EPHEMERIS_TYPE":0,"CLASSIFICATION_TYPE":"U","NORAD_CAT_ID":56457,"ELEMENT_SET_NO":999,"REV_AT_EPOCH":15563,"BSTAR":9.489164e-6,"MEAN_MOTION_DOT":2.0e-7,"MEAN_MOTION_DDOT":0},{"OBJECT_NAME":"STARLINK-6050","OBJECT_ID":"2023-064L","EPOCH":"2026-03-12T06:55:56.427456","MEAN_MOTION":14.98296078,"ECCENTRICITY":0.00027287,"INCLINATION":70.0006,"RA_OF_ASC_NODE":137.9754,"ARG_OF_PERICENTER":234.7409,"MEAN_ANOMALY":125.3495,"EPHEMERIS_TYPE":0,"CLASSIFICATION_TYPE":"U","NORAD_CAT_ID":56458,"ELEMENT_SET_NO":999,"REV_AT_EPOCH":15563,"BSTAR":1.1208077e-5,"MEAN_MOTION_DOT":4.1e-7,"MEAN_MOTION_DDOT":0},{"OBJECT_NAME":"STARLINK-6048","OBJECT_ID":"2023-064M","EPOCH":"2026-03-12T06:07:56.781120","MEAN_MOTION":14.98327766,"ECCENTRICITY":0.00029568,"INCLINATION":70.0005,"RA_OF_ASC_NODE":137.8589,"ARG_OF_PERICENTER":261.0626,"MEAN_ANOMALY":99.0198,"EPHEMERIS_TYPE":0,"CLASSIFICATION_TYPE":"U","NORAD_CAT_ID":56459,"ELEMENT_SET_NO":999,"REV_AT_EPOCH":15562,"BSTAR":-2.0411798e-5,"MEAN_MOTION_DOT":-3.37e-6,"MEAN_MOTION_DDOT":0},{"OBJECT_NAME":"STARLINK-6047","OBJECT_ID":"2023-064N","EPOCH":"2026-03-12T06:25:44.439744","MEAN_MOTION":14.98316185,"ECCENTRICITY":0.00030072,"INCLINATION":69.9991,"RA_OF_ASC_NODE":137.9018,"ARG_OF_PERICENTER":279.5302,"MEAN_ANOMALY":80.5517,"EPHEMERIS_TYPE":0,"CLASSIFICATION_TYPE":"U","NORAD_CAT_ID":56460,"ELEMENT_SET_NO":999,"REV_AT_EPOCH":15563,"BSTAR":0.00013059515,"MEAN_MOTION_DOT":1.465e-5,"MEAN_MOTION_DDOT":0},{"OBJECT_NAME":"STARLINK-6037","OBJECT_ID":"2023-064P","EPOCH":"2026-03-12T07:37:49.329984","MEAN_MOTION":14.9833207,"ECCENTRICITY":0.00033753,"INCLINATION":70,"RA_OF_ASC_NODE":137.6746,"ARG_OF_PERICENTER":266.5937,"MEAN_ANOMALY":93.4836,"EPHEMERIS_TYPE":0,"CLASSIFICATION_TYPE":"U","NORAD_CAT_ID":56461,"ELEMENT_SET_NO":999,"REV_AT_EPOCH":15564,"BSTAR":0.00017589925,"MEAN_MOTION_DOT":2.007e-5,"MEAN_MOTION_DDOT":0},{"OBJECT_NAME":"STARLINK-6045","OBJECT_ID":"2023-064Q","EPOCH":"2026-03-12T08:07:26.021568","MEAN_MOTION":14.98331464,"ECCENTRICITY":0.00034746,"INCLINATION":69.9995,"RA_OF_ASC_NODE":97.5781,"ARG_OF_PERICENTER":269.8024,"MEAN_ANOMALY":90.2737,"EPHEMERIS_TYPE":0,"CLASSIFICATION_TYPE":"U","NORAD_CAT_ID":56462,"ELEMENT_SET_NO":999,"REV_AT_EPOCH":15663,"BSTAR":-1.868976e-6,"MEAN_MOTION_DOT":-1.15e-6,"MEAN_MOTION_DDOT":0},{"OBJECT_NAME":"STARLINK-6051","OBJECT_ID":"2023-064R","EPOCH":"2026-03-12T07:01:48.161856","MEAN_MOTION":14.98328914,"ECCENTRICITY":0.00031885,"INCLINATION":70.0005,"RA_OF_ASC_NODE":137.9839,"ARG_OF_PERICENTER":270.0629,"MEAN_ANOMALY":90.0164,"EPHEMERIS_TYPE":0,"CLASSIFICATION_TYPE":"U","NORAD_CAT_ID":56463,"ELEMENT_SET_NO":999,"REV_AT_EPOCH":15563,"BSTAR":-3.258134e-6,"MEAN_MOTION_DOT":-1.32e-6,"MEAN_MOTION_DDOT":0},{"OBJECT_NAME":"STARLINK-6043","OBJECT_ID":"2023-064S","EPOCH":"2026-03-12T06:19:42.969792","MEAN_MOTION":14.9833669,"ECCENTRICITY":0.00032671,"INCLINATION":69.9996,"RA_OF_ASC_NODE":137.8864,"ARG_OF_PERICENTER":267.3622,"MEAN_ANOMALY":92.7163,"EPHEMERIS_TYPE":0,"CLASSIFICATION_TYPE":"U","NORAD_CAT_ID":56464,"ELEMENT_SET_NO":999,"REV_AT_EPOCH":15563,"BSTAR":7.6992859e-5,"MEAN_MOTION_DOT":8.26e-6,"MEAN_MOTION_DDOT":0},{"OBJECT_NAME":"STARLINK-6054","OBJECT_ID":"2023-064T","EPOCH":"2026-03-10T01:51:12.718656","MEAN_MOTION":14.97960429,"ECCENTRICITY":0.00041166,"INCLINATION":70.0022,"RA_OF_ASC_NODE":103.3296,"ARG_OF_PERICENTER":89.1094,"MEAN_ANOMALY":271.0537,"EPHEMERIS_TYPE":0,"CLASSIFICATION_TYPE":"U","NORAD_CAT_ID":56465,"ELEMENT_SET_NO":999,"REV_AT_EPOCH":15629,"BSTAR":-0.003784265,"MEAN_MOTION_DOT":-0.00044538,"MEAN_MOTION_DDOT":0},{"OBJECT_NAME":"STARLINK-6053","OBJECT_ID":"2023-064U","EPOCH":"2026-03-12T06:07:42.021408","MEAN_MOTION":14.98334185,"ECCENTRICITY":0.00032019,"INCLINATION":69.9997,"RA_OF_ASC_NODE":137.8567,"ARG_OF_PERICENTER":270.4825,"MEAN_ANOMALY":89.5967,"EPHEMERIS_TYPE":0,"CLASSIFICATION_TYPE":"U","NORAD_CAT_ID":56466,"ELEMENT_SET_NO":999,"REV_AT_EPOCH":15562,"BSTAR":3.7261506e-5,"MEAN_MOTION_DOT":3.52e-6,"MEAN_MOTION_DDOT":0},{"OBJECT_NAME":"STARLINK-6055","OBJECT_ID":"2023-064V","EPOCH":"2026-03-12T06:37:26.099328","MEAN_MOTION":14.98336913,"ECCENTRICITY":0.00033281,"INCLINATION":69.9995,"RA_OF_ASC_NODE":118.0615,"ARG_OF_PERICENTER":271.5516,"MEAN_ANOMALY":88.5261,"EPHEMERIS_TYPE":0,"CLASSIFICATION_TYPE":"U","NORAD_CAT_ID":56467,"ELEMENT_SET_NO":999,"REV_AT_EPOCH":15612,"BSTAR":-5.4276544e-5,"MEAN_MOTION_DOT":-7.41e-6,"MEAN_MOTION_DDOT":0},{"OBJECT_NAME":"STARLINK-5998","OBJECT_ID":"2023-064W","EPOCH":"2026-03-12T07:31:48.571104","MEAN_MOTION":14.98319693,"ECCENTRICITY":0.00034725,"INCLINATION":69.9997,"RA_OF_ASC_NODE":137.6607,"ARG_OF_PERICENTER":271.7991,"MEAN_ANOMALY":88.2771,"EPHEMERIS_TYPE":0,"CLASSIFICATION_TYPE":"U","NORAD_CAT_ID":56468,"ELEMENT_SET_NO":999,"REV_AT_EPOCH":15564,"BSTAR":0.00018151288,"MEAN_MOTION_DOT":2.073e-5,"MEAN_MOTION_DDOT":0},{"OBJECT_NAME":"STARLINK-5518","OBJECT_ID":"2023-064X","EPOCH":"2026-03-12T06:55:28.067520","MEAN_MOTION":14.98329346,"ECCENTRICITY":0.00031633,"INCLINATION":69.9993,"RA_OF_ASC_NODE":118.1054,"ARG_OF_PERICENTER":269.4776,"MEAN_ANOMALY":90.6021,"EPHEMERIS_TYPE":0,"CLASSIFICATION_TYPE":"U","NORAD_CAT_ID":56469,"ELEMENT_SET_NO":999,"REV_AT_EPOCH":15612,"BSTAR":7.9033463e-5,"MEAN_MOTION_DOT":8.5e-6,"MEAN_MOTION_DDOT":0},{"OBJECT_NAME":"STARLINK-5523","OBJECT_ID":"2023-064Y","EPOCH":"2026-03-12T06:43:27.085440","MEAN_MOTION":14.98329616,"ECCENTRICITY":0.00031283,"INCLINATION":69.9995,"RA_OF_ASC_NODE":118.0768,"ARG_OF_PERICENTER":269.7907,"MEAN_ANOMALY":90.2893,"EPHEMERIS_TYPE":0,"CLASSIFICATION_TYPE":"U","NORAD_CAT_ID":56470,"ELEMENT_SET_NO":999,"REV_AT_EPOCH":15612,"BSTAR":-1.1885954e-5,"MEAN_MOTION_DOT":-2.35e-6,"MEAN_MOTION_DDOT":0},{"OBJECT_NAME":"STARLINK-5521","OBJECT_ID":"2023-064Z","EPOCH":"2026-03-12T06:31:25.864896","MEAN_MOTION":14.98328267,"ECCENTRICITY":0.00029769,"INCLINATION":69.9993,"RA_OF_ASC_NODE":118.0467,"ARG_OF_PERICENTER":268.5601,"MEAN_ANOMALY":91.5217,"EPHEMERIS_TYPE":0,"CLASSIFICATION_TYPE":"U","NORAD_CAT_ID":56471,"ELEMENT_SET_NO":999,"REV_AT_EPOCH":15612,"BSTAR":-9.55001e-6,"MEAN_MOTION_DOT":-2.07e-6,"MEAN_MOTION_DDOT":0},{"OBJECT_NAME":"STARLINK-5038","OBJECT_ID":"2023-064AA","EPOCH":"2026-03-12T06:19:23.884032","MEAN_MOTION":14.98318923,"ECCENTRICITY":0.00028006,"INCLINATION":69.9997,"RA_OF_ASC_NODE":118.0204,"ARG_OF_PERICENTER":258.5151,"MEAN_ANOMALY":101.5694,"EPHEMERIS_TYPE":0,"CLASSIFICATION_TYPE":"U","NORAD_CAT_ID":56472,"ELEMENT_SET_NO":999,"REV_AT_EPOCH":15612,"BSTAR":-0.00010723744,"MEAN_MOTION_DOT":-1.372e-5,"MEAN_MOTION_DDOT":0},{"OBJECT_NAME":"STARLINK-5524","OBJECT_ID":"2023-064AC","EPOCH":"2026-03-12T06:49:28.912224","MEAN_MOTION":14.98334127,"ECCENTRICITY":0.00036609,"INCLINATION":69.9994,"RA_OF_ASC_NODE":118.0916,"ARG_OF_PERICENTER":270.9665,"MEAN_ANOMALY":89.1074,"EPHEMERIS_TYPE":0,"CLASSIFICATION_TYPE":"U","NORAD_CAT_ID":56474,"ELEMENT_SET_NO":999,"REV_AT_EPOCH":15612,"BSTAR":8.8989301e-5,"MEAN_MOTION_DOT":9.69e-6,"MEAN_MOTION_DDOT":0},{"OBJECT_NAME":"STARLINK-5541","OBJECT_ID":"2023-064AD","EPOCH":"2026-03-12T06:13:23.749824","MEAN_MOTION":14.98319482,"ECCENTRICITY":0.00032552,"INCLINATION":70,"RA_OF_ASC_NODE":118.0026,"ARG_OF_PERICENTER":259.3133,"MEAN_ANOMALY":100.766,"EPHEMERIS_TYPE":0,"CLASSIFICATION_TYPE":"U","NORAD_CAT_ID":56475,"ELEMENT_SET_NO":999,"REV_AT_EPOCH":15612,"BSTAR":0.00016838213,"MEAN_MOTION_DOT":1.916e-5,"MEAN_MOTION_DDOT":0}]
